IRIDIUM 119             
1 42959U 17061E   24357.23461437  .00000019  00000+0 -26927-6 0  9997
2 42959  86.3969 251.6795 0001930  73.7017 286.4391 14.34217574377137
IRIDIUM 107             
1 42960U 17061F   24357.25364164  .00000116  00000+0  34521-4 0  9994
2 42960  86.3972 251.6898 0001586  82.4924 277.6451 14.34217234377152
IRIDIUM 132             
1 42961U 17061G   24357.25998712  .00000559  00000+0  19248-3 0  9996
2 42961  86.3970 251.6705 0001828  84.5103 275.6301 14.34220662377149
IRIDIUM 136             
1 42962U 17061H   24356.73354956 -.00000196  00000+0 -77121-4 0  9999
2 42962  86.3973 251.8944 0001723  71.7345 288.4038 14.34216518377087
IRIDIUM 139             
1 42963U 17061J   24356.73989203  .00000299  00000+0  99565-4 0  9997
2 42963  86.3974 251.9448 0001739  79.1513 280.9878 14.34218025377090
IRIDIUM 125             
1 42964U 17061K   24356.79696915  .00000212  00000+0  68673-4 0  9990
2 42964  86.3975 251.9719 0001984  63.3849 296.7550 14.34218946377119
IRIDIUM 135             
1 43070U 17083A   24356.84087077 -.00000032  00000+0 -18539-4 0  9990
2 43070  86.3993 188.6738 0002055  94.4680 265.6751 14.34218600366419
IRIDIUM 138             
1 43071U 17083B   24357.42438805  .00000125  00000+0  37652-4 0  9993
2 43071  86.3975 188.1243 0002261  72.5091 287.6352 14.34217937366488
